ONEWEB-0208             
1 48243U 21031AK  26004.81119909 -.00000070  00000+0 -22220-3 0  9997
2 48243  87.9016 322.2577 0001425  78.4898 281.6392 13.14502919226846
ONEWEB-0200             
1 48244U 21031AL  26004.85084462  .00000018  00000+0  15384-4 0  9991
2 48244  87.9011 322.2391 0001622  83.0220 277.1095 13.14503810226779
ONEWEB-0217             
1 48245U 21031AM  26004.86669558  .00000184  00000+0  46293-3 0  9994
2 48245  87.9024 322.2327 0001397  78.0807 282.0479 13.14502224226721
ONEWEB-0211             
1 48767U 21045A   26004.82096266 -.00000027  00000+0 -10445-3 0  9992
2 48767  87.9016 291.7184 0001328  63.4226 296.7041 13.16138908222953
ONEWEB-0223             
1 48768U 21045B   26004.82212669 -.00000037  00000+0 -13206-3 0  9999
2 48768  87.9013 291.7867 0001565  58.2871 301.8411 13.15548695222923
ONEWEB-0230             
1 48769U 21045C   26004.79360407 -.00000027  00000+0 -10548-3 0  9995
2 48769  87.9002 291.8201 0001916  81.0048 279.1299 13.15550234223187
ONEWEB-0237             
1 48770U 21045D   26004.78251576  .00000170  00000+0  41689-3 0  9999
2 48770  87.9004 291.8232 0001715  62.7914 297.3391 13.15547876222902
ONEWEB-0235             
1 48771U 21045E   26004.83321921 -.00000063  00000+0 -20016-3 0  9992
2 48771  87.9011 291.7852 0001595  57.4583 302.6701 13.15547739222900
ONEWEB-0242             
1 48772U 21045F   26004.82688168 -.00000069  00000+0 -21720-3 0  9990
2 48772  87.9017 291.7807 0001812  69.8962 290.2363 13.15548720222948
ONEWEB-0241             
1 48773U 21045G   26004.81421146 -.00000116  00000+0 -34257-3 0  9993
2 48773  87.9008 291.8184 0001371  62.5898 297.5372 13.15548057222859
ONEWEB-0243             
1 48774U 21045H   26004.84591170  .00000090  00000+0  20509-3 0  9996
2 48774  87.9009 291.8224 0001789  61.0734 299.0576 13.15551430222887
ONEWEB-0222             
1 48775U 21045J   26004.82925034 -.00000093  00000+0 -28126-3 0  9993
2 48775  87.9016 291.7807 0001582  68.1949 291.9349 13.15550182222926
ONEWEB-0244             
1 48776U 21045K   26004.77934364  .00000145  00000+0  35197-3 0  9996
2 48776  87.9020 291.7791 0001686  68.4093 291.7217 13.15548373223485
ONEWEB-0247             
1 48777U 21045L   26004.85222163  .00000169  00000+0  41385-3 0  9995
2 48777  87.9003 291.8177 0002073  46.4148 313.7154 13.15552711222939
ONEWEB-0245             
1 48778U 21045M   26004.84748572  .00000085  00000+0  19093-3 0  9990
2 48778  87.9010 291.7838 0001434  71.1406 288.9879 13.15548207222902
ONEWEB-0229             
1 48779U 21045N   26004.84273105  .00000016  00000+0  93123-5 0  9998
2 48779  87.9009 291.7824 0001734  69.6942 290.4374 13.15547861222932
ONEWEB-0228             
1 48780U 21045P   26004.80008158 -.00000024  00000+0 -97282-4 0  9990
2 48780  87.9017 291.7771 0001631  69.0999 291.0305 13.15549686222844
ONEWEB-0232             
1 48781U 21045Q   26004.77459252  .00000166  00000+0  40674-3 0  9999
2 48781  87.9023 291.7766 0001639  71.3893 288.7415 13.15549466223160
ONEWEB-0231             
1 48782U 21045R   26004.82845237 -.00000113  00000+0 -33292-3 0  9990
2 48782  87.9007 291.8037 0001704  66.4803 293.6506 13.15547579222869
ONEWEB-0234             
1 48783U 21045S   26004.86634791  .00000127  00000+0  30447-3 0  9998
2 48783  87.9014 291.7716 0001142 103.8550 256.2708 13.15550305223009
ONEWEB-0238             
1 48784U 21045T   26004.79057999  .00000112  00000+0  26375-3 0  9999
2 48784  87.9013 291.7795 0001317  86.3703 273.7578 13.15548918222897
ONEWEB-0240             
1 48785U 21045U   26004.81182292 -.00000091  00000+0 -27507-3 0  9994
2 48785  87.9020 291.7728 0001415  65.8327 294.2951 13.15547926222920
ONEWEB-0246             
1 48786U 21045V   26004.80627715 -.00000075  00000+0 -23236-3 0  9995
2 48786  87.9020 291.7837 0001758  70.1054 290.0266 13.15547760222792
ONEWEB-0210             
1 48787U 21045W   26004.78092879  .00000211  00000+0  52681-3 0  9996
2 48787  87.9015 291.7870 0002021  56.5724 303.5600 13.15547875222834
ONEWEB-0214             
1 48788U 21045X   26004.78964325  .00000115  00000+0  27090-3 0  9990
2 48788  87.9023 291.7786 0001994  65.9749 294.1590 13.15549772222807
ONEWEB-0221             
1 48789U 21045Y   26004.79677619  .00000019  00000+0  15682-4 0  9997
2 48789  87.9016 291.7898 0001581  65.7162 294.4133 13.15548399222892
ONEWEB-0213             
1 48790U 21045Z   26004.78568256  .00000158  00000+0  38650-3 0  9997
2 48790  87.9006 291.7980 0001739  63.2551 296.8757 13.15548000222959
ONEWEB-0212             
1 48791U 21045AA  26004.83877074 -.00000019  00000+0 -84728-4 0  9991
2 48791  87.9015 291.7797 0001595  75.0506 285.0801 13.15549117222957
ONEWEB-0227             
1 48792U 21045AB  26004.83797644 -.00000030  00000+0 -11249-3 0  9996
2 48792  87.9003 291.7876 0001563  71.5197 288.6103 13.15547566222900
ONEWEB-0226             
1 48793U 21045AC  26004.83163147 -.00000139  00000+0 -40331-3 0  9996
2 48793  87.9007 291.7985 0001810  64.1180 296.0136 13.15549314222879
ONEWEB-0224             
1 48794U 21045AD  26004.79518582  .00000070  00000+0  15271-3 0  9996
2 48794  87.9009 291.8409 0000752  60.1418 299.9787 13.15549387222793
ONEWEB-0233             
1 48795U 21045AE  26004.79980156  .00000017  00000+0  98826-5 0  9997
2 48795  87.9006 291.8502 0001507  62.8360 297.2924 13.15547639222814
ONEWEB-0190             
1 48796U 21045AF  26004.78724821  .00000105  00000+0  24582-3 0  9996
2 48796  87.9005 291.8142 0001757  46.9778 313.1499 13.15551235222886
ONEWEB-0236             
1 48797U 21045AG  26004.80469294 -.00000022  00000+0 -92546-4 0  9996
2 48797  87.9007 291.8217 0001586  76.8900 283.2407 13.15547163222770
ONEWEB-0248             
1 48798U 21045AH  26004.81737885 -.00000098  00000+0 -29454-3 0  9992
2 48798  87.9018 291.7858 0001286  56.6951 303.4302 13.15548276222935
ONEWEB-0225             
1 48799U 21045AJ  26004.83956123 -.00000059  00000+0 -19041-3 0  9991
2 48799  87.9007 291.8033 0001656  51.3983 308.7295 13.15547375222947
ONEWEB-0215             
1 48800U 21045AK  26004.80944504 -.00000073  00000+0 -22801-3 0  9995
2 48800  87.9022 291.7734 0001513  49.8716 310.2547 13.15547606222813
ONEWEB-0216             
1 48801U 21045AL  26004.81895682 -.00000102  00000+0 -30459-3 0  9990
2 48801  87.9009 291.7993 0001851  72.2047 287.9285 13.15548417222829
ONEWEB-0239             
1 48802U 21045AM  26004.82371162 -.00000101  00000+0 -30135-3 0  9994
2 48802  87.9004 291.8128 0001214  47.0955 313.0277 13.15548329222865
ONEWEB-0249             
1 48967U 21060A   26004.73463347  .00000046  00000+0  87256-4 0  9993
2 48967  87.9042 261.3239 0001460  71.3836 288.7453 13.16593546218103
ONEWEB-0250             
1 48968U 21060B   26004.76825472  .00000021  00000+0  18524-4 0  9993
2 48968  87.9038 259.6075 0000601 105.2968 254.8234 13.25822751218560
ONEWEB-0252             
1 48970U 21060D   26004.76628911  .00000123  00000+0  28841-3 0  9990
2 48970  87.9041 261.3110 0001710  71.2192 288.9124 13.16596106218153
ONEWEB-0253             
1 48971U 21060E   26004.75522236  .00000092  00000+0  20774-3 0  9995
2 48971  87.9041 261.3181 0001470  67.8443 292.2844 13.16593494218081
ONEWEB-0254             
1 48972U 21060F   26004.76471517  .00000151  00000+0  36073-3 0  9997
2 48972  87.9048 261.3088 0001278  62.9256 297.2005 13.16595563218082
ONEWEB-0255             
1 48973U 21060G   26004.72672294 -.00000029  00000+0 -10866-3 0  9997
2 48973  87.9036 261.3299 0001385  66.1782 293.9494 13.16594345218153
ONEWEB-0256             
1 48974U 21060H   26004.75282428 -.00000030  00000+0 -11174-3 0  9992
2 48974  87.9032 261.3321 0001613  76.3305 283.8005 13.16595351218125
ONEWEB-0257             
1 48975U 21060J   26004.70929859  .00000092  00000+0  20822-3 0  9990
2 48975  87.9044 261.3215 0001523  68.4068 291.7225 13.16594157218078
ONEWEB-0258             
1 48976U 21060K   26004.78688053  .00000182  00000+0  44249-3 0  9996
2 48976  87.9039 261.3199 0001421  77.7830 282.3460 13.16593766218095
ONEWEB-0259             
1 48977U 21060L   26004.78054673  .00000140  00000+0  33245-3 0  9990
2 48977  87.9045 261.3169 0001359  70.0908 290.0369 13.16593579218122
ONEWEB-0260             
1 48978U 21060M   26004.77182857  .00000197  00000+0  48184-3 0  9996
2 48978  87.9032 261.3299 0001892  74.0687 286.0652 13.16596847218102
ONEWEB-0261             
1 48979U 21060N   26004.74175353  .00000007  00000+0 -14749-4 0  9999
2 48979  87.9032 261.3378 0001558  59.8250 300.3035 13.16595524218158
ONEWEB-0262             
1 48980U 21060P   26004.72196451  .00000037  00000+0  61909-4 0  9993
2 48980  87.9043 261.3176 0001194  70.6955 289.4305 13.16593808218113
ONEWEB-0263             
1 48981U 21060Q   26004.75363170  .00000027  00000+0  36685-4 0  9993
2 48981  87.9038 261.3243 0001447  59.3158 300.8115 13.16593378218088
ONEWEB-0264             
1 48982U 21060R   26004.71484138  .00000077  00000+0  16885-3 0  9992
2 48982  87.9039 261.3354 0001699  67.9356 292.1955 13.16595621218085
ONEWEB-0266             
1 48984U 21060T   26004.73621389 -.00000029  00000+0 -10945-3 0  9997
2 48984  87.9043 261.3189 0001337  78.5191 281.6090 13.16593785218073
ONEWEB-0267             
1 48985U 21060U   26004.74730208  .00000066  00000+0  13784-3 0  9993
2 48985  87.9040 261.3149 0001552  66.5992 293.5302 13.16593843218086
ONEWEB-0268             
1 48986U 21060V   26004.71562889  .00000054  00000+0  10765-3 0  9992
2 48986  87.9043 261.3302 0001578  73.6652 286.4653 13.16594113218341
ONEWEB-0269             
1 48987U 21060W   26004.77263517  .00000151  00000+0  36259-3 0  9999
2 48987  87.9036 261.3387 0001691  80.3790 279.7532 13.16594779218126
ONEWEB-0270             
1 48988U 21060X   26004.71405701  .00000060  00000+0  12244-3 0  9994
2 48988  87.9042 261.3326 0001300  58.1085 302.0172 13.16594529218150
